{
  "type": "FeatureCollection",
  "features": [
    {
      "type": "Feature",
      "properties": {
        "norad_id": 37562,
        "name": "IRIDIUM 33 DEB",
        "group": "iridium-33-debris",
        "lat": -70.26100522334411,
        "lon": 30.775658401869002,
        "alt_km": 729.426317133325,
        "timestamp": "2025-12-18T19:29:52.928415+00:00",
        "meta_object_name": "IRIDIUM 33 DEB",
        "meta_object_id": "1997-051XX",
        "meta_epoch": "2025-12-17T21:32:59.557056",
        "meta_mean_motion": 14.56520214,
        "meta_eccentricity": 0.00266504,
        "meta_inclination": 86.3744,
        "meta_ra_of_asc_node": 41.3522,
        "meta_arg_of_pericenter": 91.7117,
        "meta_mean_anomaly": 85.7489,
        "meta_ephemeris_type": 0,
        "meta_classification_type": "U",
        "meta_norad_cat_id": 37562,
        "meta_element_set_no": 999,
        "meta_rev_at_epoch": 86403,
        "meta_bstar": 0.00077741138,
        "meta_mean_motion_dot": 3.496e-05,
        "meta_mean_motion_ddot": 0,
        "tle_line1": "1 37562U 97051XX  25351.89791154  .00003496  00000+0  77741-3 0  9995",
        "tle_line2": "2 37562  86.3744  41.3522 0026650  91.7117  85.7489 14.56520214864031"
      },
      "geometry": {
        "type": "Point",
        "coordinates": [
          30.775658401869002,
          -70.26100522334411
        ]
      }
    },
    {
      "type": "Feature",
      "properties": {
        "norad_id": 37565,
        "name": "IRIDIUM 33 DEB",
        "group": "iridium-33-debris",
        "lat": -38.47462858783336,
        "lon": 4.024533890762742,
        "alt_km": 729.7328488355761,
        "timestamp": "2025-12-18T19:29:52.928425+00:00",
        "meta_object_name": "IRIDIUM 33 DEB",
        "meta_object_id": "1997-051YA",
        "meta_epoch": "2025-12-16T08:06:50.433408",
        "meta_mean_motion": 14.51532577,
        "meta_eccentricity": 0.00151174,
        "meta_inclination": 86.3492,
        "meta_ra_of_asc_node": 8.0105,
        "meta_arg_of_pericenter": 73.8183,
        "meta_mean_anomaly": 286.4685,
        "meta_ephemeris_type": 0,
        "meta_classification_type": "U",
        "meta_norad_cat_id": 37565,
        "meta_element_set_no": 999,
        "meta_rev_at_epoch": 65889,
        "meta_bstar": 0.00040818811,
        "meta_mean_motion_dot": 1.655e-05,
        "meta_mean_motion_ddot": 0,
        "tle_line1": "1 37565U 97051YA  25350.33808372  .00001655  00000+0  40819-3 0  9998",
        "tle_line2": "2 37565  86.3492   8.0105 0015117  73.8183 286.4685 14.51532577658894"
      },
      "geometry": {
        "type": "Point",
        "coordinates": [
          4.024533890762742,
          -38.47462858783336
        ]
      }
    },
    {
      "type": "Feature",
      "properties": {
        "norad_id": 38017,
        "name": "IRIDIUM 33 DEB",
        "group": "iridium-33-debris",
        "lat": -3.8119145974329873,
        "lon": 163.34339977127343,
        "alt_km": 727.0991706447849,
        "timestamp": "2025-12-18T19:29:52.928435+00:00",
        "meta_object_name": "IRIDIUM 33 DEB",
        "meta_object_id": "1997-051YD",
        "meta_epoch": "2025-12-18T04:36:04.603680",
        "meta_mean_motion": 14.49190685,
        "meta_eccentricity": 0.00919647,
        "meta_inclination": 86.3412,
        "meta_ra_of_asc_node": 163.8576,
        "meta_arg_of_pericenter": 84.7873,
        "meta_mean_anomaly": 276.3818,
        "meta_ephemeris_type": 0,
        "meta_classification_type": "U",
        "meta_norad_cat_id": 38017,
        "meta_element_set_no": 999,
        "meta_rev_at_epoch": 61481,
        "meta_bstar": 0.0038247823,
        "meta_mean_motion_dot": 0.00015406,
        "meta_mean_motion_ddot": 0,
        "tle_line1": "1 38017U 97051YD  25352.19171995  .00015406  00000+0  38248-2 0  9992",
        "tle_line2": "2 38017  86.3412 163.8576 0091964  84.7873 276.3818 14.49190685614819"
      },
      "geometry": {
        "type": "Point",
        "coordinates": [
          163.34339977127343,
          -3.8119145974329873
        ]
      }
    },
    {
      "type": "Feature",
      "properties": {
        "norad_id": 38022,
        "name": "IRIDIUM 33 DEB",
        "group": "iridium-33-debris",
        "lat": -32.63535707490565,
        "lon": 11.388865291547225,
        "alt_km": 745.6477380635215,
        "timestamp": "2025-12-18T19:29:52.928445+00:00",
        "meta_object_name": "IRIDIUM 33 DEB",
        "meta_object_id": "1997-051YJ",
        "meta_epoch": "2025-12-16T19:19:39.728352",
        "meta_mean_motion": 14.41275031,
        "meta_eccentricity": 0.00461893,
        "meta_inclination": 86.2686,
        "meta_ra_of_asc_node": 14.6628,
        "meta_arg_of_pericenter": 37.5381,
        "meta_mean_anomaly": 322.9028,
        "meta_ephemeris_type": 0,
        "meta_classification_type": "U",
        "meta_norad_cat_id": 38022,
        "meta_element_set_no": 999,
        "meta_rev_at_epoch": 69252,
        "meta_bstar": 0.00076326479,
        "meta_mean_motion_dot": 2.517e-05,
        "meta_mean_motion_ddot": 0,
        "tle_line1": "1 38022U 97051YJ  25350.80532093  .00002517  00000+0  76326-3 0  9993",
        "tle_line2": "2 38022  86.2686  14.6628 0046189  37.5381 322.9028 14.41275031692523"
      },
      "geometry": {
        "type": "Point",
        "coordinates": [
          11.388865291547225,
          -32.63535707490565
        ]
      }
    },
    {
      "type": "Feature",
      "properties": {
        "norad_id": 38028,
        "name": "IRIDIUM 33 DEB",
        "group": "iridium-33-debris",
        "lat": -39.045789194309314,
        "lon": -179.38101675623784,
        "alt_km": 754.6001784180025,
        "timestamp": "2025-12-18T19:29:52.928455+00:00",
        "meta_object_name": "IRIDIUM 33 DEB",
        "meta_object_id": "1997-051YQ",
        "meta_epoch": "2025-12-16T18:20:01.722912",
        "meta_mean_motion": 14.46184882,
        "meta_eccentricity": 0.00302609,
        "meta_inclination": 86.3259,
        "meta_ra_of_asc_node": 358.5216,
        "meta_arg_of_pericenter": 108.2751,
        "meta_mean_anomaly": 252.1749,
        "meta_ephemeris_type": 0,
        "meta_classification_type": "U",
        "meta_norad_cat_id": 38028,
        "meta_element_set_no": 999,
        "meta_rev_at_epoch": 65553,
        "meta_bstar": 0.00020847815,
        "meta_mean_motion_dot": 7.7e-06,
        "meta_mean_motion_ddot": 0,
        "tle_line1": "1 38028U 97051YQ  25350.76390883  .00000770  00000+0  20848-3 0  9990",
        "tle_line2": "2 38028  86.3259 358.5216 0030260 108.2751 252.1749 14.46184882655531"
      },
      "geometry": {
        "type": "Point",
        "coordinates": [
          -179.38101675623784,
          -39.045789194309314
        ]
      }
    },
    {
      "type": "Feature",
      "properties": {
        "norad_id": 38228,
        "name": "IRIDIUM 33 DEB",
        "group": "iridium-33-debris",
        "lat": 80.0238203946034,
        "lon": -155.72912224334456,
        "alt_km": 777.8550631785974,
        "timestamp": "2025-12-18T19:29:52.928465+00:00",
        "meta_object_name": "IRIDIUM 33 DEB",
        "meta_object_id": "1997-051ZC",
        "meta_epoch": "2025-12-15T22:37:05.354976",
        "meta_mean_motion": 14.27271769,
        "meta_eccentricity": 0.00646384,
        "meta_inclination": 86.2946,
        "meta_ra_of_asc_node": 47.1084,
        "meta_arg_of_pericenter": 179.0762,
        "meta_mean_anomaly": 303.5549,
        "meta_ephemeris_type": 0,
        "meta_classification_type": "U",
        "meta_norad_cat_id": 38228,
        "meta_element_set_no": 999,
        "meta_rev_at_epoch": 84827,
        "meta_bstar": 0.00027707855,
        "meta_mean_motion_dot": 7.12e-06,
        "meta_mean_motion_ddot": 0,
        "tle_line1": "1 38228U 97051ZC  25349.94242309  .00000712  00000+0  27708-3 0  9997",
        "tle_line2": "2 38228  86.2946  47.1084 0064638 179.0762 303.5549 14.27271769848277"
      },
      "geometry": {
        "type": "Point",
        "coordinates": [
          -155.72912224334456,
          80.0238203946034
        ]
      }
    },
    {
      "type": "Feature",
      "properties": {
        "norad_id": 38241,
        "name": "IRIDIUM 33 DEB",
        "group": "iridium-33-debris",
        "lat": -83.28309635810494,
        "lon": -158.97736089393143,
        "alt_km": 720.5860086333305,
        "timestamp": "2025-12-18T19:29:52.928475+00:00",
        "meta_object_name": "IRIDIUM 33 DEB",
        "meta_object_id": "1997-051ZR",
        "meta_epoch": "2025-12-18T06:43:55.090272",
        "meta_mean_motion": 14.5490186,
        "meta_eccentricity": 0.00053876,
        "meta_inclination": 86.3222,
        "meta_ra_of_asc_node": 348.1545,
        "meta_arg_of_pericenter": 61.0766,
        "meta_mean_anomaly": 299.0981,
        "meta_ephemeris_type": 0,
        "meta_classification_type": "U",
        "meta_norad_cat_id": 38241,
        "meta_element_set_no": 999,
        "meta_rev_at_epoch": 60281,
        "meta_bstar": 0.00063412298,
        "meta_mean_motion_dot": 2.745e-05,
        "meta_mean_motion_ddot": 0,
        "tle_line1": "1 38241U 97051ZR  25352.28049873  .00002745  00000+0  63412-3 0  9994",
        "tle_line2": "2 38241  86.3222 348.1545 0005387  61.0766 299.0981 14.54901860602815"
      },
      "geometry": {
        "type": "Point",
        "coordinates": [
          -158.97736089393143,
          -83.28309635810494
        ]
      }
    }
  ]
}